{
  "norad_id": 63000,
  "name": "STARLINK-32673",
  "history": [
    {
      "epoch": "2026-03-28T13:59:54.630816Z",
      "apogee_km": 483.73126453050645,
      "perigee_km": 482.33570245416286,
      "latitude_deg": -9.450599777918651e-06,
      "longitude_deg": 0.7512273999903694,
      "height_km": 482.36221159229547,
      "semi_major_axis_km": 6861.170483492334,
      "eccentricity": 0.0001017,
      "inclination_deg": 42.9992,
      "raan_deg": 36.7305,
      "arg_perigee_deg": 50.2899,
      "mean_anomaly_deg": 309.8042,
      "mean_motion_rev_day": 15.27585214
    }
  ]
}